NAVSTAR 46 (USA 145)    
1 25933U 99055A   26159.82606405 -.00000057  00000+0  00000+0 0  9995
2 25933  51.4714 295.8346 0106647 175.2327 189.6331  2.00562648195418
UFO 10 (USA 146)        
1 25967U 99063A   26160.09985240 -.00000177  00000+0  00000+0 0  9992
2 25967   9.8496  27.2538 0001875  25.9726 217.2689  1.00272679 97269
ORBCOMM FM32            
1 25982U 99065C   26160.15705307  .00000482  00000+0  20815-3 0  9990
2 25982  45.0140 211.2502 0005018 353.6429   6.4355 14.37121138385933
XMM-NEWTON              
1 25989U 99066A   26161.36780906  .00000089  00000+0  00000+0 0  9993
2 25989  64.5271 283.0748 4677764  65.0342   0.0416  0.50122831 22976
TERRA                   
1 25994U 99068A   26160.29179171  .00000332  00000+0  76469-4 0  9996
2 25994  97.9459 210.1508 0001011 225.7960 262.5868 14.61096772408456
ASIASTAR                
1 26107U 00016A   26158.64794378 -.00000321  00000+0  00000+0 0  9998
2 26107   9.1019  58.2562 0004712  17.4232 158.6382  1.00273400 95823
IMAGE                   
1 26113U 00017A   26159.38132848  .00000033  00000+0  15648-1 0  9991
2 26113  94.2210 315.2579 7438912 288.8048   8.8428  1.68665472161358
USA 149 (DSP 20)        
1 26356U 00024A   26160.20787154  .00000103  00000+0  00000+0 0  9999
2 26356  13.1643  11.9070 0001603 310.3002 204.8024  1.00271898 32831
TDRS 8                  
1 26388U 00034A   26160.10392014 -.00000183  00000+0  00000+0 0  9990
2 26388  12.6714  31.3927 0004913  12.1935 336.0333  1.00268703 95094
ISS (ZVEZDA)            
1 26400U 00037A   26160.19103139  .00006847  00000+0  12924-3 0  9999
2 26400  51.6332 339.6717 0006890 149.5560 210.5830 15.49678250570359
NAVSTAR 48 (USA 151)    
1 26407U 00040A   26160.32511312  .00000060  00000+0  00000+0 0  9990
2 26407  54.8524 215.4748 0121134 302.4295  64.7131  2.00557610189799
CLUSTER II-FM7 (SAMBA)  
1 26410U 00041A   26161.44626665  .00004459  00000+0  00000+0 0  9993
2 26410 149.9132  49.6129 9048191 266.6863 359.9829  0.44840364 20284
CLUSTER II-FM8 (TANGO)  
1 26464U 00045B   26157.18212104  .00004544  00000+0  00000+0 0  9996
2 26464 150.1407  49.6985 9046201 266.6195   3.2041  0.44406384 20263
NSS-11                  
1 26554U 00059A   26160.23417297  .00000042  00000+0  00000+0 0  9990
2 26554   2.1050  81.4828 0003018   0.5870  75.8445  1.00272539 41215
USA 153                 
1 26575U 00065A   26159.57124348 -.00000313  00000+0  00000+0 0  9999
2 26575  11.6099  35.4929 0003128  45.7539 155.8756  1.00271802 32847
AMC-6                   
1 26580U 00067A   26160.25131600  .00000105  00000+0  00000+0 0  9991
2 26580   0.1309  83.0200 0003618   4.5670 125.4756  1.00271487 93810
NAVSTAR 49 (USA 154)    
1 26605U 00071A   26158.71037413  .00000020  00000+0  00000+0 0  9995
2 26605  55.6207  95.3287 0174313 266.6892 299.0269  2.00565954187322
ISS (DESTINY)           
1 26700U 01006B   26160.19103139  .00006847  00000+0  12924-3 0  9999
2 26700  51.6332 339.6717 0006890 149.5560 210.5830 15.49678250570352
ODIN                    
1 26702U 01007A   26160.08640460  .00135654  00000+0  97686-3 0  9990
2 26702  97.3859 200.5220 0006524 153.1212 207.0391 15.73146623388125
USA 157 (MILSTAR-2 2)   
1 26715U 01009A   26160.29583796  .00000120  00000+0  00000+0 0  9996
2 26715  11.5336  19.8107 0039207 177.1838  17.0985  1.00271671 32868
BSAT-2A                 
1 26720U 01011B   26160.11718380 -.00000208  00000+0  00000+0 0  9993
2 26720  10.7168  47.5670 0002249 206.3378 352.7730  0.99178817 91891
OMNI-M1                 
1 26857U 01026A   26158.03638869 -.00000011  00000+0  00000+0 0  9993
2 26857  44.8338 247.6044 0014500  52.1985 307.9833  3.92401508205177
USA 159 (DSP 21)        
1 26880U 01033A   26159.97366882 -.00000200  00000+0  00000+0 0  9994
2 26880  12.7740  16.4968 0001482 127.2512  44.8451  0.99199497 32879
INTELSAT 902 (IS-902)   
1 26900U 01039A   26160.25045014 -.00000268  00000+0  00000+0 0  9991
2 26900   6.0963  71.8806 0004426   4.4891 221.3211  1.00272549 90613
PCSAT (NO-44)           
1 26931U 01043C   26160.26677914  .00000089  00000+0  64108-4 0  9995
2 26931  67.0511 264.7572 0006107 264.2587  95.7818 14.31953293289315
PROBA-1                 
1 26958U 01049B   26160.30412042  .00002933  00000+0  19134-3 0  9992
2 26958  97.9600 168.5614 0055572 148.3085 212.1508 15.07462919342436
TIMED                   
1 26998U 01055B   26160.31407065  .00001216  00000+0  11397-3 0  9999
2 26998  74.0679 250.8704 0000668 350.9805   9.1368 14.95277358329647
MAROC-TUBSAT            
1 27004U 01056D   26160.28635831 -.00000016  00000+0  35100-4 0  9996
2 27004  99.8079 336.9972 0020077 161.1125  18.8011 13.70262087225104
COSMOS 2385             
1 27056U 01058B   26160.28791572  .00000026  00000+0  90064-4 0  9990
2 27056  82.5370 224.8976 0005019 246.3775 226.1884 12.60565042124788
COSMOS 2386             
1 27057U 01058C   26160.23953976  .00000003  00000+0 -44570-4 0  9991
2 27057  82.5440 219.2524 0001648  99.3408 260.7869 12.61616587125507
USA 164 (MILSTAR-2 3)   
1 27168U 02001A   26160.27430279  .00000108  00000+0  00000+0 0  9993
2 27168  11.1697  21.9527 0099145   8.2826 345.1140  1.00274832 32876
